STARLINK-4446
1 53505U 22099AS  26092.83335647  .00227334  00000+0  28176-2 0  9994
2 53505  97.6045 217.1422 0001123  69.8933 233.1604 15.59283310  5916
